#cP2017 12 25  0  0  0.00000000      96 ORBIT IGS14 HLM  IGS
## 1981  86400.00000000   900.00000000 58112 0.0000000000000
+   32   G01G02G03G04G05G06G07G08G09G10G11G12G13G14G15G16G17
+        G18G19G20G21G22G23G24G25G26G27G28G29G30G31G32  0  0
+          0  0  0  0  0  0  0  0  0  0  0  0  0  0  0  0  0
+          0  0  0  0  0  0  0  0  0  0  0  0  0  0  0  0  0
+          0  0  0  0  0  0  0  0  0  0  0  0  0  0  0  0  0
++         2  2  2  0  2  2  2  2  2  2  2  2  2  2  2  2  2
++         2  2  2  2  2  2  2  2  2  2  2  2  2  2  2  0  0
++         0  0  0  0  0  0  0  0  0  0  0  0  0  0  0  0  0
++         0  0  0  0  0  0  0  0  0  0  0  0  0  0  0  0  0
++         0  0  0  0  0  0  0  0  0  0  0  0  0  0  0  0  0
%c G  cc GPS ccc cccc cccc cccc cccc ccccc ccccc ccccc ccccc
%c cc cc ccc ccc cccc cccc cccc cccc ccccc ccccc ccccc ccccc
%f  1.2500000  1.025000000  0.00000000000  0.000000000000000
%f  0.0000000  0.000000000  0.00000000000  0.000000000000000
%i    0    0    0    0      0      0      0      0         0
%i    0    0    0    0      0      0      0      0         0
/* RAPID ORBIT COMBINATION FROM WEIGHTED AVERAGE OF:        
/* cod emr esa gfz jpl ngs sio usn whu                      
/* REFERENCED TO IGS TIME (IGST) AND TO WEIGHTED MEAN POLE: 
/* PCV:IGS14_1977 OL/AL:FES2004  NONE     Y  ORB:CMB CLK:CMB
*  2017 12 25  4 30  0.00000000
PG01  13741.158725 -21407.133809   6979.683629    -19.154424  6 10  7  94       
PG02 -15903.834843    814.660704 -20676.406174    246.404218  3  8  3 104       
PG03  17582.077608 -13158.965860 -14925.214594    -21.469266  7  8  4  91       
PG04  18453.706424   9297.832845 -17076.468960 999999.999999
PG05 -26399.079268   2011.014779  -3330.048699    -18.804281  5  7  5 114       
PG06 -11040.482389 -11600.960382 -21157.434770    413.931817  6  8  5 118       
PG07   4212.792702 -24771.348624   8080.057230    261.186566  7  8  4 132       
PG08  14815.417236  -5212.868867  21493.228067    -85.293698  6  6  4  89       
PG09  -4104.995820 -21704.919859 -14778.299693    486.676581  5  6  5 113       
PG10  13591.248579  11807.060270  19600.185932    135.269467  4  6  3  71       
PG11  10254.131902 -19849.193893  13897.788317   -731.811483  5  6  5 110       
PG12 -20319.539274  10628.755049 -13394.116788    358.789983  5  9  5 121       
PG13 -17835.589305  -3778.947518  19190.828764    -94.965109  4  3  5 113       
PG14  18356.742420  17602.730120  -7671.503583    -91.190077  5  8  7 101       
PG15 -14135.283825   7801.086483  20924.272773   -357.401109  3  6  6  84       
PG16  26674.803886    -99.234081  -2586.936560     35.039725     5  7  62       
PG17 -14783.236021 -22140.345036   1326.797311   -135.772173  7  7  5  73       
PG18   1637.329818  16212.010126  21565.256176    633.557261  4  6  2  95       
PG19 -17791.095868 -18188.897374  -7508.300748   -467.886544  4  7  5  75       
PG20 -19201.235696  13981.442203  11696.978905    496.503676  9  9  7  55       
PG21   -777.540962  24831.696093  10111.037411   -448.988313  2  8  6  90       
PG22  22821.438818 -10821.296838  -8018.708070   -233.873300  7 10  5  75       
PG23   6729.484399 -15159.156590 -20397.348552   -219.026622  7  5  4 115       
PG24 -14503.975731  19722.349848   9844.221952    -43.896161  6  4  6 134       
PG25  -7756.312027  15147.124010 -20488.763542   -511.295700  5  6  5 111       
PG26  22764.790910   5314.535796 -12711.945246   -312.508399  4  4  7  74       
PG27  19887.938427   7532.063971  16001.217092    358.397219  2  5  5  83       
PG28  -8968.282697 -13692.266503  21548.246930    673.951869  5  8    103       
PG29   -766.862007  19651.373212 -17869.634829    520.553239  3 10  7 104       
PG30  -2658.049585 -21227.360278  15652.501398    118.121060  4  2  4  86       
PG31  11542.558029  10566.303954 -21348.197417    153.222274  6  4  4  93       
PG32  16785.615074  20629.694065   -173.217171   -531.160110  6  7  6 107       
*  2017 12 25  4 45  0.00000000
PG01  13628.846091 -20410.886406   9651.125084    -19.156639  4  8  6 106       
PG02 -15242.928011  -1611.234697 -21137.258579    246.395056  4  8  2 102       
PG03  19173.095947 -13244.059755 -12721.424968    -21.463548  7  8  4 102       
PG04  16496.312471   9697.809244 -18770.631839 999999.999999
PG05 -25938.230117   1641.899930  -6078.748308    -18.803330  5  7  5  99       
PG06 -10178.583675 -13812.556759 -20241.857275    413.932470  6  7  5 128       
PG07   4736.038137 -25379.036116   5340.325236    261.181629  7  7  4 124       
PG08  16347.871331  -3364.447258  20746.646088    -85.294887  6  6  4  85       
PG09  -2781.432374 -20472.112830 -16723.415053    486.679985  5  6  4 100       
PG10  11350.449934  12313.990591  20672.914965    135.275201  4  6  3  84       
PG11  10670.450595 -18073.812477  15789.289367   -731.812979  4  5  4 103       
PG12 -21700.477783  10636.040395 -10953.891286    358.788280  5  8  5 115       
PG13 -18906.757770  -5623.446491  17660.830798    -94.965208  3  5  5 117       
PG14  18606.780059  18349.269790  -4947.628960    -91.190883  6  9  7  92       
PG15 -15792.105958   6050.394183  20351.213218   -357.401102  4  6  6 106       
PG16  26254.389383     85.282646  -5424.407126     35.039479  2  5  8  75       
PG17 -14474.176905 -22035.259481   4192.596724   -135.769929  6  7  6  78       
PG18   -649.025347  16706.221804  21212.692198    633.557437  4  6    109       
PG19 -18003.480742 -18856.783541  -4718.091372   -467.884716  3  7  5  85       
PG20 -20465.768695  14028.210464   9273.757090    496.504651  8 10  8  47       
PG21  -1305.561888  25627.956966   7533.922754   -448.985056  2  8  6 109       
PG22  23677.146631 -10673.188188  -5382.829554   -233.884854  6 10  6 105       
PG23   8396.463235 -13377.666888 -21045.906150   -219.026541  7  4  4 104       
PG24 -14384.736131  18405.959355  12271.997641    -43.896545  5  4  6 143       
PG25  -9983.033954  15445.249780 -19234.815505   -511.301264  5  6  5 111       
PG26  21256.202696   5816.458239 -14903.132921   -312.495596  5  3  7  83       
PG27  20891.112403   8922.435914  13896.764094    358.399499  2  4  6  82       
PG28  -6618.168607 -13955.128178  22241.876716    673.955069  6  8     93       
PG29  -2125.424546  18012.921423 -19418.770176    520.548390  2 10  6  89       
PG30  -1797.524591 -22688.219276  13575.090932    118.118354  4  3  4  83       
PG31  10582.511543  12786.255332 -20583.583757    153.219965  6  4  4 102       
PG32  16496.847935  20693.568458   2666.731366   -531.161340  5  7  6 103       
*  2017 12 25  5  0  0.00000000
PG01  13485.171028 -19126.351517  12152.893172    -19.158887  3  5  5 112       
PG02 -14693.847396  -4094.389493 -21215.325743    246.386074  5  8  2  94       
PG03  20503.275293 -13349.624354 -10298.423806    -21.457870  7  8  4  94       
PG04  14395.541901  10243.666055 -20150.536084 999999.999999
PG05 -25203.596047   1173.393941  -8724.362883    -18.802198  5  6  5 106       
PG06  -9470.335241 -15948.136244 -18976.995359    413.933081  6  7  5  93       
PG07   5134.543846 -25709.307977   2506.640850    261.176848  6  5  4 121       
PG08  17903.587968  -1675.931311  19645.745710    -85.295804  6  6  5  69       
PG09  -1254.939146 -19162.764413 -18381.396624    486.683367  6  5  4  96       
PG10   9039.838372  12961.952367  21391.718722    135.280987  4  6  4  83       
PG11  11187.920293 -16115.570309  17399.791509   -731.814060  3  6  3 106       
PG12 -22797.112777  10668.098936  -8324.593829    358.786615  4  8  4 126       
PG13 -19958.860942  -7254.785510  15824.024828    -94.965612  3  6  5  99       
PG14  18698.676717  18837.387785  -2138.918915    -91.191525  6  9  7  96       
PG15 -17462.717306   4438.977000  19424.004914   -357.401142  4  6  7  99       
PG16  25536.053547    343.583573  -8171.089235     35.039102  3  6  8  84       
PG17 -13953.114486 -21705.529880   6987.355624   -135.767855  6  7  5  67       
PG18  -2856.407185  17293.917529  20512.980441    633.557332  4  7    103       
PG19 -18051.261130 -19261.307631  -1846.103519   -467.882823  2  7  5  78       
PG20 -21458.978849  14040.012529   6689.617845    496.505431  8 10  8  77       
PG21  -1729.515921  26164.429315   4829.857120   -448.981754  2  9  7 101       
PG22  24247.451119 -10480.016579  -2653.898273   -233.896493  6 10  6 100       
PG23  10181.889442 -11643.612643 -21322.078307   -219.026685  7  4  5  97       
PG24 -14264.750502  16829.617942  14484.410002    -43.896699  5  5  6 136       
PG25 -12037.027500  15826.611664 -17651.811955   -511.306774  5  6  5 118       
PG26  19549.560151   6454.986473 -16839.096826   -312.482782  5  3  6 103       
PG27  21794.047754  10073.395837  11555.017389    358.401874  2  4  6  86       
PG28  -4232.947257 -14362.355355  22574.304648    673.958015  6  8     92       
PG29  -3674.647532  16333.147520 -20634.199034    520.543921    10  6 108       
PG30  -1092.888558 -23955.965290  11262.480446    118.115666  5  3  4  70       
PG31   9771.630686  14954.328927 -19460.024911    153.217526  5  5  4 109       
PG32  15990.336270  20543.664686   5460.979953   -531.162607  6  7  6 111       
EOF
